      2.10          N: GNSS NAV DATA                        RINEX VERSION / TYPE
fic2rin                                 09/17/2018 00:22:19 PGM / RUN BY / DATE
                                                            END OF HEADER
20 18  9 16 12  0  0.0 5.158865824342e-04 5.684341886081e-13 0.000000000000e+00
    2.600000000000e+01-1.378125000000e+01 5.375938215119e-09 3.743987328557e-01
   -8.568167686462e-07 4.270674311556e-03 7.625669240952e-06 5.153668300629e+03
    4.320000000000e+04 5.774199962616e-08 2.461742651543e+00-1.024454832077e-07
    9.291532874668e-01 2.212187500000e+02 2.103088751528e+00-8.459995249903e-09
    2.178662178596e-11 1.000000000000e+00 2.019000000000e+03 0.000000000000e+00
    2.400000000000e+00 0.000000000000e+00-8.381903171539e-09 2.600000000000e+01
    3.600600000000e+04 4.000000000000e+00
22 18  9 16 12  0  0.0-5.207434296608e-04-1.091393642128e-11 0.000000000000e+00
    7.400000000000e+01-1.321875000000e+01 5.465941964137e-09 1.941822972035e+00
   -8.735805749893e-07 7.081999210641e-03 6.921589374542e-06 5.153709936142e+03
    4.320000000000e+04 1.247972249985e-07 2.511258932152e+00-1.043081283569e-07
    9.259181450759e-01 2.231250000000e+02-1.484193737232e+00-8.369277185417e-09
    4.464471677451e-11 1.000000000000e+00 2.019000000000e+03 0.000000000000e+00
    2.400000000000e+00 0.000000000000e+00-1.816079020500e-08 7.400000000000e+01
    3.600600000000e+04 4.000000000000e+00
24 18  9 16 12  0  0.0-5.545653402805e-05-5.684341886081e-13 0.000000000000e+00
    6.700000000000e+01 6.018750000000e+01 4.901989901841e-09 8.690343998224e-01
    3.039836883545e-06 7.250410621054e-03 8.013099431992e-06 5.153631900787e+03
    4.320000000000e+04-4.842877388000e-08-1.659569775605e+00 9.872019290924e-08
    9.403863258822e-01 2.153750000000e+02 5.323743115727e-01-8.298559954046e-09
   -1.064330047904e-10 1.000000000000e+00 2.019000000000e+03 0.000000000000e+00
    2.400000000000e+00 0.000000000000e+00 2.793967723846e-09 6.700000000000e+01
    3.600600000000e+04 4.000000000000e+00
25 18  9 16 12  0  0.0-6.478307768703e-04-5.684341886081e-12 0.000000000000e+00
    6.900000000000e+01 3.431250000000e+01 4.437327689652e-09-1.149625482859e+00
    1.957640051842e-06 7.464622380212e-03 4.606321454048e-06 5.153594198227e+03
    4.320000000000e+04 1.601874828339e-07-5.639071406530e-01 5.960464477539e-08
    9.731848994802e-01 2.980000000000e+02 8.624864574972e-01-8.205698943155e-09
    1.110760553350e-10 1.000000000000e+00 2.019000000000e+03 0.000000000000e+00
    2.400000000000e+00 0.000000000000e+00 5.587935447693e-09 6.900000000000e+01
    3.600600000000e+04 4.000000000000e+00
15 18  9 16 12  0  0.0-3.457423299551e-04 1.023181539495e-12 0.000000000000e+00
    7.100000000000e+01-5.937500000000e-01 5.300935090938e-09 1.770314025942e+00
   -7.636845111847e-08 1.071715634316e-02 8.447095751762e-06 5.153561023712e+03
    4.320000000000e+04-2.104789018631e-07-2.748880338334e+00 1.303851604462e-08
    9.284586837224e-01 2.036875000000e+02 7.014343752258e-01-8.417136321799e-09
   -2.607251459631e-10 1.000000000000e+00 2.019000000000e+03 0.000000000000e+00
    2.400000000000e+00 0.000000000000e+00-1.071020960808e-08 7.100000000000e+01
    3.600600000000e+04 4.000000000000e+00
11 18  9 16 12  0  0.0-7.175425998867e-04 2.842170943040e-12 0.000000000000e+00
    1.040000000000e+02-5.253125000000e+01 5.997035514886e-09-1.490792549608e-01
   -2.659857273102e-06 1.701663318090e-02 7.089227437973e-06 5.153654165268e+03
    4.320000000000e+04-2.272427082062e-07 1.097456522155e+00-8.568167686462e-08
    9.064732383860e-01 2.166250000000e+02 1.816015680365e+00-9.052519930934e-09
    8.500354073867e-11 1.000000000000e+00 2.019000000000e+03 0.000000000000e+00
    3.400000000000e+00 0.000000000000e+00-1.210719347000e-08 1.040000000000e+02
    3.600600000000e+04 4.000000000000e+00
12 18  9 16 12  0  0.0 3.065401688218e-04-2.728484105319e-12 0.000000000000e+00
    8.600000000000e+01 2.865625000000e+01 4.216604209919e-09-7.268658030954e-01
    1.721084117889e-06 7.026565028355e-03 5.017966032028e-06 5.153773565292e+03
    4.320000000000e+04 5.029141902924e-08-5.027748486934e-01 8.568167686462e-08
    9.856520965490e-01 3.010312500000e+02 1.024121018157e+00-8.111409301327e-09
    1.071473202588e-10 1.000000000000e+00 2.019000000000e+03 0.000000000000e+00
    2.400000000000e+00 0.000000000000e+00-1.257285475731e-08 8.600000000000e+01
    3.600600000000e+04 4.000000000000e+00
10 18  9 16 12  0  0.0 1.815692521632e-04-2.387423592154e-12 0.000000000000e+00
    8.900000000000e+01-1.150000000000e+01 4.561618581152e-09-1.484789166834e+00
   -5.941838026047e-07 3.786662011407e-03 7.677823305130e-06 5.153659418106e+03
    4.320000000000e+04 7.450580596924e-09 2.571563799109e+00-1.303851604462e-07
    9.618289642428e-01 2.348125000000e+02-2.801335507257e+00-7.936044853837e-09
    7.214586230761e-11 1.000000000000e+00 2.019000000000e+03 0.000000000000e+00
    2.400000000000e+00 0.000000000000e+00 1.862645149231e-09 8.900000000000e+01
    3.600600000000e+04 4.000000000000e+00
 9 18  9 16 12  0  0.0 5.061742849648e-04-2.046363078989e-12 0.000000000000e+00
    7.300000000000e+01-5.718750000000e+00 4.663051377664e-09 3.106469969835e+00
   -1.974403858185e-07 1.023280085064e-03 8.149072527885e-06 5.153542703629e+03
    4.320000000000e+04-7.078051567078e-08-2.675343059897e+00-3.166496753693e-08
    9.528958861328e-01 2.191250000000e+02 1.737995065648e+00-8.021762710044e-09
   -2.096515899731e-10 1.000000000000e+00 2.019000000000e+03 0.000000000000e+00
    2.400000000000e+00 0.000000000000e+00 9.313225746155e-10 7.300000000000e+01
    3.600600000000e+04 4.000000000000e+00
32 18  9 16 12  0  0.0-4.220460541546e-04 1.125499693444e-11 0.000000000000e+00
    8.500000000000e+01 5.437500000000e+00 4.504830501415e-09-2.857625380916e+00
    3.408640623093e-07 2.297952771187e-03 8.296221494675e-06 5.153702125549e+03
    4.320000000000e+04 1.862645149231e-08-2.669835530281e+00 7.450580596924e-09
    9.572350415960e-01 2.163437500000e+02-2.544940259777e+00-7.932473276495e-09
   -1.675069773380e-10 1.000000000000e+00 2.019000000000e+03 0.000000000000e+00
    2.400000000000e+00 0.000000000000e+00 4.656612873077e-10 8.500000000000e+01
    3.600600000000e+04 4.000000000000e+00
26 18  9 16 12  0  0.0-1.866091042757e-05 1.159605744760e-11 0.000000000000e+00
    5.800000000000e+01 4.637500000000e+01 4.810200364153e-09-1.676757616211e+00
    2.142041921616e-06 2.923099906184e-03 4.928559064865e-06 5.153720149994e+03
    4.320000000000e+04-1.303851604462e-08-5.878668978045e-01-7.636845111847e-08
    9.546281727809e-01 2.814375000000e+02 6.167074090247e-02-8.356419506986e-09
    1.510777215649e-10 1.000000000000e+00 2.019000000000e+03 0.000000000000e+00
    2.400000000000e+00 0.000000000000e+00 7.450580596924e-09 5.800000000000e+01
    3.600600000000e+04 4.000000000000e+00
18 18  9 16 12  0  0.0 5.789846181870e-05 4.320099833421e-12 0.000000000000e+00
    7.700000000000e+01-4.003125000000e+01 4.917347684412e-09 2.716598321110e-01
   -1.970678567886e-06 1.496765308548e-02 8.122995495796e-06 5.153628797531e+03
    4.320000000000e+04-1.750886440277e-07 1.482315691278e+00 5.774199962616e-08
    9.506958972601e-01 2.200625000000e+02 1.348653013749e+00-8.455352199358e-09
    5.000208278745e-11 1.000000000000e+00 2.019000000000e+03 0.000000000000e+00
    2.400000000000e+00 0.000000000000e+00-6.519258022308e-09 7.700000000000e+01
    3.600600000000e+04 4.000000000000e+00
29 18  9 16 12  0  0.0 3.753826022148e-04-7.503331289627e-12 0.000000000000e+00
    6.500000000000e+01-5.406250000000e+01 4.154815921903e-09-3.016334848579e+00
   -2.682209014893e-06 7.984216790646e-04 6.584450602531e-06 5.153635498047e+03
    4.320000000000e+04 9.685754776001e-08 5.412261201946e-01 5.401670932770e-08
    9.847100884877e-01 2.650625000000e+02 1.611875566779e+00-8.011762293487e-09
   -5.035924052165e-11 1.000000000000e+00 2.019000000000e+03 0.000000000000e+00
    2.400000000000e+00 0.000000000000e+00-1.024454832077e-08 6.500000000000e+01
    3.600600000000e+04 4.000000000000e+00
27 18  9 16 12  0  0.0 3.443951718509e-04-3.751665644813e-12 0.000000000000e+00
    8.900000000000e+01-4.890625000000e+01 4.247319775060e-09 2.692541907498e+00
   -2.520158886909e-06 6.031012744643e-03 5.679205060005e-06 5.153695775986e+03
    4.320000000000e+04-9.126961231232e-08 4.757927803248e-01-3.911554813385e-08
    9.780583374956e-01 2.798437500000e+02 4.549045586580e-01-7.950688320939e-09
   -4.000166622996e-11 1.000000000000e+00 2.019000000000e+03 0.000000000000e+00
    2.400000000000e+00 0.000000000000e+00 1.862645149231e-09 8.900000000000e+01
    3.600600000000e+04 4.000000000000e+00
28 18  9 16 12  0  0.0 7.447213865817e-04 2.160049916711e-12 0.000000000000e+00
    9.300000000000e+01 2.631250000000e+01 3.995523572452e-09-2.683303256523e+00
    1.359730958939e-06 1.954717654735e-02 4.569068551064e-06 5.153691528320e+03
    4.320000000000e+04 2.291053533554e-07-4.797152586832e-01 2.197921276093e-07
    9.849652667512e-01 2.975312500000e+02-1.513548838664e+00-7.660319083038e-09
    1.703642392115e-10 1.000000000000e+00 2.019000000000e+03 0.000000000000e+00
    3.400000000000e+00 0.000000000000e+00-1.117587089539e-08 9.300000000000e+01
    3.600600000000e+04 4.000000000000e+00
11 18  9 16 11 59 44.0-7.175425998867e-04 2.842170943040e-12 0.000000000000e+00
    4.000000000000e+00-5.253125000000e+01 5.997035514886e-09-1.514129018808e-01
   -2.659857273102e-06 1.701663050335e-02 7.089227437973e-06 5.153654161453e+03
    4.318400000000e+04-2.272427082062e-07 1.097456643577e+00-8.568167686462e-08
    9.064732354602e-01 2.166250000000e+02 1.816015580887e+00-9.052519930934e-09
    8.500354073867e-11 1.000000000000e+00 2.019000000000e+03 0.000000000000e+00
    2.400000000000e+00 0.000000000000e+00-1.210719347000e-08 4.000000000000e+00
    3.903600000000e+04 4.000000000000e+00
